{
  "type": "FeatureCollection",
  "features": [
    {
      "type": "Feature",
      "properties": {
        "norad_id": 34680,
        "name": "COSMOS 2251 DEB",
        "group": "cosmos-2251-debris",
        "lat": 52.555408394975586,
        "lon": 158.9714239816968,
        "alt_km": 691.0186970848354,
        "timestamp": "2025-12-08T23:34:04.366661+00:00",
        "meta_object_name": "COSMOS 2251 DEB",
        "meta_object_id": "1993-036YA",
        "meta_epoch": "2025-12-08T12:04:10.484832",
        "meta_mean_motion": 14.60547643,
        "meta_eccentricity": 0.00069336,
        "meta_inclination": 74.043,
        "meta_ra_of_asc_node": 137.946,
        "meta_arg_of_pericenter": 233.7213,
        "meta_mean_anomaly": 183.9708,
        "meta_ephemeris_type": 0,
        "meta_classification_type": "U",
        "meta_norad_cat_id": 34680,
        "meta_element_set_no": 999,
        "meta_rev_at_epoch": 88266,
        "meta_bstar": 0.0016349913,
        "meta_mean_motion_dot": 7.923e-05,
        "meta_mean_motion_ddot": 0,
        "tle_line1": "1 34680U 93036YA  25342.50289913  .00007923  00000+0  16350-2 0  9992",
        "tle_line2": "2 34680  74.0430 137.9460 0006933 233.7213 183.9708 14.60547643882669"
      },
      "geometry": {
        "type": "Point",
        "coordinates": [
          158.9714239816968,
          52.555408394975586
        ]
      }
    },
    {
      "type": "Feature",
      "properties": {
        "norad_id": 34681,
        "name": "COSMOS 2251 DEB",
        "group": "cosmos-2251-debris",
        "lat": -19.946431287510737,
        "lon": -68.1291147277539,
        "alt_km": 607.2059049041782,
        "timestamp": "2025-12-08T23:34:04.366671+00:00",
        "meta_object_name": "COSMOS 2251 DEB",
        "meta_object_id": "1993-036YB",
        "meta_epoch": "2025-12-08T08:00:48.684384",
        "meta_mean_motion": 14.83045006,
        "meta_eccentricity": 0.00257048,
        "meta_inclination": 74.0634,
        "meta_ra_of_asc_node": 299.1031,
        "meta_arg_of_pericenter": 356.6121,
        "meta_mean_anomaly": 124.0599,
        "meta_ephemeris_type": 0,
        "meta_classification_type": "U",
        "meta_norad_cat_id": 34681,
        "meta_element_set_no": 999,
        "meta_rev_at_epoch": 89205,
        "meta_bstar": 0.002068167,
        "meta_mean_motion_dot": 0.00016933,
        "meta_mean_motion_ddot": 0,
        "tle_line1": "1 34681U 93036YB  25342.33389681  .00016933  00000+0  20682-2 0  9991",
        "tle_line2": "2 34681  74.0634 299.1031 0025704 356.6121 124.0599 14.83045006892050"
      },
      "geometry": {
        "type": "Point",
        "coordinates": [
          -68.1291147277539,
          -19.946431287510737
        ]
      }
    },
    {
      "type": "Feature",
      "properties": {
        "norad_id": 34682,
        "name": "COSMOS 2251 DEB",
        "group": "cosmos-2251-debris",
        "lat": 57.48078544638801,
        "lon": 116.81631976715465,
        "alt_km": 703.4703138612922,
        "timestamp": "2025-12-08T23:34:04.366682+00:00",
        "meta_object_name": "COSMOS 2251 DEB",
        "meta_object_id": "1993-036YC",
        "meta_epoch": "2025-12-08T13:28:57.741024",
        "meta_mean_motion": 14.58847249,
        "meta_eccentricity": 0.00185427,
        "meta_inclination": 74.04,
        "meta_ra_of_asc_node": 90.9444,
        "meta_arg_of_pericenter": 224.1225,
        "meta_mean_anomaly": 151.2779,
        "meta_ephemeris_type": 0,
        "meta_classification_type": "U",
        "meta_norad_cat_id": 34682,
        "meta_element_set_no": 999,
        "meta_rev_at_epoch": 88625,
        "meta_bstar": 0.0013546801,
        "meta_mean_motion_dot": 6.331e-05,
        "meta_mean_motion_ddot": 0,
        "tle_line1": "1 34682U 93036YC  25342.56177941  .00006331  00000+0  13547-2 0  9994",
        "tle_line2": "2 34682  74.0400  90.9444 0018542 224.1225 151.2779 14.58847249886251"
      },
      "geometry": {
        "type": "Point",
        "coordinates": [
          116.81631976715465,
          57.48078544638801
        ]
      }
    },
    {
      "type": "Feature",
      "properties": {
        "norad_id": 34683,
        "name": "COSMOS 2251 DEB",
        "group": "cosmos-2251-debris",
        "lat": 39.5698859028335,
        "lon": -94.19745913230051,
        "alt_km": 672.4042997037786,
        "timestamp": "2025-12-08T23:34:04.366692+00:00",
        "meta_object_name": "COSMOS 2251 DEB",
        "meta_object_id": "1993-036YD",
        "meta_epoch": "2025-12-08T10:07:37.856352",
        "meta_mean_motion": 14.64388535,
        "meta_eccentricity": 0.00185596,
        "meta_inclination": 74.0293,
        "meta_ra_of_asc_node": 100.5683,
        "meta_arg_of_pericenter": 215.5247,
        "meta_mean_anomaly": 211.9459,
        "meta_ephemeris_type": 0,
        "meta_classification_type": "U",
        "meta_norad_cat_id": 34683,
        "meta_element_set_no": 999,
        "meta_rev_at_epoch": 88285,
        "meta_bstar": 0.0018597273,
        "meta_mean_motion_dot": 9.839e-05,
        "meta_mean_motion_ddot": 0,
        "tle_line1": "1 34683U 93036YD  25342.42196593  .00009839  00000+0  18597-2 0  9990",
        "tle_line2": "2 34683  74.0293 100.5683 0018559 215.5247 211.9459 14.64388535882857"
      },
      "geometry": {
        "type": "Point",
        "coordinates": [
          -94.19745913230051,
          39.5698859028335
        ]
      }
    },
    {
      "type": "Feature",
      "properties": {
        "norad_id": 34685,
        "name": "COSMOS 2251 DEB",
        "group": "cosmos-2251-debris",
        "lat": 22.536861710212104,
        "lon": 162.75215424640325,
        "alt_km": 706.3535196128951,
        "timestamp": "2025-12-08T23:34:04.366702+00:00",
        "meta_object_name": "COSMOS 2251 DEB",
        "meta_object_id": "1993-036YF",
        "meta_epoch": "2025-12-08T13:51:54.106848",
        "meta_mean_motion": 14.57447619,
        "meta_eccentricity": 0.00143256,
        "meta_inclination": 74.0289,
        "meta_ra_of_asc_node": 156.6952,
        "meta_arg_of_pericenter": 260.6781,
        "meta_mean_anomaly": 162.4402,
        "meta_ephemeris_type": 0,
        "meta_classification_type": "U",
        "meta_norad_cat_id": 34685,
        "meta_element_set_no": 999,
        "meta_rev_at_epoch": 88471,
        "meta_bstar": 0.0014952251,
        "meta_mean_motion_dot": 6.775e-05,
        "meta_mean_motion_ddot": 0,
        "tle_line1": "1 34685U 93036YF  25342.57770957  .00006775  00000+0  14952-2 0  9997",
        "tle_line2": "2 34685  74.0289 156.6952 0014325 260.6781 162.4402 14.57447619884712"
      },
      "geometry": {
        "type": "Point",
        "coordinates": [
          162.75215424640325,
          22.536861710212104
        ]
      }
    },
    {
      "type": "Feature",
      "properties": {
        "norad_id": 34689,
        "name": "COSMOS 2251 DEB",
        "group": "cosmos-2251-debris",
        "lat": -38.66591069582476,
        "lon": 63.123844541560935,
        "alt_km": 849.7816294240265,
        "timestamp": "2025-12-08T23:34:04.366712+00:00",
        "meta_object_name": "COSMOS 2251 DEB",
        "meta_object_id": "1993-036YK",
        "meta_epoch": "2025-12-07T17:42:44.786304",
        "meta_mean_motion": 14.04340408,
        "meta_eccentricity": 0.02290881,
        "meta_inclination": 74.0894,
        "meta_ra_of_asc_node": 232.0928,
        "meta_arg_of_pericenter": 302.0324,
        "meta_mean_anomaly": 114.2751,
        "meta_ephemeris_type": 0,
        "meta_classification_type": "U",
        "meta_norad_cat_id": 34689,
        "meta_element_set_no": 999,
        "meta_rev_at_epoch": 84271,
        "meta_bstar": 0.0067174131,
        "meta_mean_motion_dot": 0.00013501,
        "meta_mean_motion_ddot": 0,
        "tle_line1": "1 34689U 93036YK  25341.73801836  .00013501  00000+0  67174-2 0  9998",
        "tle_line2": "2 34689  74.0894 232.0928 0229088 302.0324 114.2751 14.04340408842714"
      },
      "geometry": {
        "type": "Point",
        "coordinates": [
          63.123844541560935,
          -38.66591069582476
        ]
      }
    },
    {
      "type": "Feature",
      "properties": {
        "norad_id": 34721,
        "name": "COSMOS 2251 DEB",
        "group": "cosmos-2251-debris",
        "lat": -2.108444517933207,
        "lon": -27.838683781825956,
        "alt_km": 891.3508294832754,
        "timestamp": "2025-12-08T23:34:04.366722+00:00",
        "meta_object_name": "COSMOS 2251 DEB",
        "meta_object_id": "1993-036YP",
        "meta_epoch": "2025-12-07T23:39:26.180352",
        "meta_mean_motion": 13.96814529,
        "meta_eccentricity": 0.02238624,
        "meta_inclination": 73.9236,
        "meta_ra_of_asc_node": 334.4971,
        "meta_arg_of_pericenter": 274.3054,
        "meta_mean_anomaly": 113.1719,
        "meta_ephemeris_type": 0,
        "meta_classification_type": "U",
        "meta_norad_cat_id": 34721,
        "meta_element_set_no": 999,
        "meta_rev_at_epoch": 85083,
        "meta_bstar": 0.0021154333,
        "meta_mean_motion_dot": 3.608e-05,
        "meta_mean_motion_ddot": 0,
        "tle_line1": "1 34721U 93036YP  25341.98571968  .00003608  00000+0  21154-2 0  9997",
        "tle_line2": "2 34721  73.9236 334.4971 0223862 274.3054 113.1719 13.96814529850833"
      },
      "geometry": {
        "type": "Point",
        "coordinates": [
          -27.838683781825956,
          -2.108444517933207
        ]
      }
    }
  ]
}